{"type": "FeatureCollection", "features": [ {"type": "Feature", "properties": {"norad_id": 33939, "name": "COSMOS 2251 DEB", "group": "cosmos-2251-debris", "lat": -48.08648241411286, "lon": 46.7266300364454, "alt_km": 571.6813449847468, "timestamp": "2025-12-20T05:41:50.424407+00:00", "meta": {"OBJECT_NAME": "COSMOS 2251 DEB", "OBJECT_ID": "1993-036EU", "EPOCH": "2025-12-19T05:55:06.240000", "MEAN_MOTION": 15.00334458, "ECCENTRICITY": 0.0004301, "INCLINATION": 74.0072, "RA_OF_ASC_NODE": 67.3766, "ARG_OF_PERICENTER": 31.1681, "MEAN_ANOMALY": 328.976, "EPHEMERIS_TYPE": 0, "CLASSIFICATION_TYPE": "U", "NORAD_CAT_ID": 33939, "ELEMENT_SET_NO": 999, "REV_AT_EPOCH": 88850, "BSTAR": 0.0017875, "MEAN_MOTION_DOT": 0.00022468, "MEAN_MOTION_DDOT": 0}, "tle": {"line1": "1 33939U 93036EU  25353.24660000  .00022468  00000+0  17875-2 0  9995", "line2": "2 33939  74.0072  67.3766 0004301  31.1681 328.9760 15.00334458888509"}}, "geometry": {"type": "Point", "coordinates": [46.7266300364454, -48.08648241411286]}}, {"type": "Feature", "properties": {"norad_id": 33940, "name": "COSMOS 2251 DEB", "group": "cosmos-2251-debris", "lat": 42.82690542512545, "lon": 144.60350434071222, "alt_km": 700.4627609200625, "timestamp": "2025-12-20T05:41:50.424417+00:00", "meta": {"OBJECT_NAME": "COSMOS 2251 DEB", "OBJECT_ID": "1993-036EV", "EPOCH": "2025-12-19T16:23:44.484000", "MEAN_MOTION": 14.58855983, "ECCENTRICITY": 0.00109893, "INCLINATION": 74.0392, "RA_OF_ASC_NODE": 130.2756, "ARG_OF_PERICENTER": 210.6135, "MEAN_ANOMALY": 164.9078, "EPHEMERIS_TYPE": 0, "CLASSIFICATION_TYPE": "U", "NORAD_CAT_ID": 33940, "ELEMENT_SET_NO": 999, "REV_AT_EPOCH": 88695, "BSTAR": 0.00074044169, "MEAN_MOTION_DOT": 3.441e-05, "MEAN_MOTION_DDOT": 0}, "tle": {"line1": "1 33940U 93036EV  25353.68315375  .00003441  00000+0  74044-3 0  9999", "line2": "2 33940  74.0392 130.2756 0010989 210.6135 164.9078 14.58855983886952"}}, "geometry": {"type": "Point", "coordinates": [144.60350434071222, 42.82690542512545]}}, {"type": "Feature", "properties": {"norad_id": 33942, "name": "COSMOS 2251 DEB", "group": "cosmos-2251-debris", "lat": 38.74650896830235, "lon": -85.69900645724628, "alt_km": 753.9956375077245, "timestamp": "2025-12-20T05:41:50.424427+00:00", "meta": {"OBJECT_NAME": "COSMOS 2251 DEB", "OBJECT_ID": "1993-036EX", "EPOCH": "2025-12-19T11:56:44.437920", "MEAN_MOTION": 14.37997882, "ECCENTRICITY": 0.0020603, "INCLINATION": 74.0365, "RA_OF_ASC_NODE": 262.383, "ARG_OF_PERICENTER": 344.3667, "MEAN_ANOMALY": 188.6471, "EPHEMERIS_TYPE": 0, "CLASSIFICATION_TYPE": "U", "NORAD_CAT_ID": 33942, "ELEMENT_SET_NO": 999, "REV_AT_EPOCH": 88231, "BSTAR": 0.00016513, "MEAN_MOTION_DOT": 4.74e-06, "MEAN_MOTION_DDOT": 0}, "tle": {"line1": "1 33942U 93036EX  25353.49773655  .00000474  00000+0  16513-3 0  9999", "line2": "2 33942  74.0365 262.3830 0020603 344.3667 188.6471 14.37997882882311"}}, "geometry": {"type": "Point", "coordinates": [-85.69900645724628, 38.74650896830235]}}, {"type": "Feature", "properties": {"norad_id": 33944, "name": "COSMOS 2251 DEB", "group": "cosmos-2251-debris", "lat": -69.36915660797115, "lon": 164.60372069512624, "alt_km": 831.6285587394377, "timestamp": "2025-12-20T05:41:50.424437+00:00", "meta": {"OBJECT_NAME": "COSMOS 2251 DEB", "OBJECT_ID": "1993-036EZ", "EPOCH": "2025-12-19T22:06:26.957376", "MEAN_MOTION": 14.37358177, "ECCENTRICITY": 0.01124876, "INCLINATION": 74.0406, "RA_OF_ASC_NODE": 295.7137, "ARG_OF_PERICENTER": 33.4747, "MEAN_ANOMALY": 28.4185, "EPHEMERIS_TYPE": 0, "CLASSIFICATION_TYPE": "U", "NORAD_CAT_ID": 33944, "ELEMENT_SET_NO": 999, "REV_AT_EPOCH": 88131, "BSTAR": 0.00025370647, "MEAN_MOTION_DOT": 7.88e-06, "MEAN_MOTION_DDOT": 0}, "tle": {"line1": "1 33944U 93036EZ  25353.92114534  .00000788  00000+0  25371-3 0  9994", "line2": "2 33944  74.0406 295.7137 0112487  33.4747  28.4185 14.37358177881316"}}, "geometry": {"type": "Point", "coordinates": [164.60372069512624, -69.36915660797115]}}, {"type": "Feature", "properties": {"norad_id": 33945, "name": "COSMOS 2251 DEB", "group": "cosmos-2251-debris", "lat": -22.9165601787881, "lon": -74.42427748493783, "alt_km": 769.3538166157286, "timestamp": "2025-12-20T05:41:50.424447+00:00", "meta": {"OBJECT_NAME": "COSMOS 2251 DEB", "OBJECT_ID": "1993-036FA", "EPOCH": "2025-12-19T21:26:24.020448", "MEAN_MOTION": 14.34606095, "ECCENTRICITY": 0.00222194, "INCLINATION": 74.0302, "RA_OF_ASC_NODE": 293.1592, "ARG_OF_PERICENTER": 17.5775, "MEAN_ANOMALY": 342.614, "EPHEMERIS_TYPE": 0, "CLASSIFICATION_TYPE": "U", "NORAD_CAT_ID": 33945, "ELEMENT_SET_NO": 999, "REV_AT_EPOCH": 88118, "BSTAR": 9.1256224e-05, "MEAN_MOTION_DOT": 2.32e-06, "MEAN_MOTION_DDOT": 0}, "tle": {"line1": "1 33945U 93036FA  25353.89333357  .00000232  00000+0  91256-4 0  9997", "line2": "2 33945  74.0302 293.1592 0022219  17.5775 342.6140 14.34606095881185"}}, "geometry": {"type": "Point", "coordinates": [-74.42427748493783, -22.9165601787881]}}, {"type": "Feature", "properties": {"norad_id": 33948, "name": "COSMOS 2251 DEB", "group": "cosmos-2251-debris", "lat": -31.647274257493898, "lon": 121.5394527641824, "alt_km": 793.2359141335637, "timestamp": "2025-12-20T05:41:50.424458+00:00", "meta": {"OBJECT_NAME": "COSMOS 2251 DEB", "OBJECT_ID": "1993-036FD", "EPOCH": "2025-12-19T22:01:06.341664", "MEAN_MOTION": 14.35637137, "ECCENTRICITY": 0.00230438, "INCLINATION": 74.0359, "RA_OF_ASC_NODE": 291.9644, "ARG_OF_PERICENTER": 6.0328, "MEAN_ANOMALY": 354.1097, "EPHEMERIS_TYPE": 0, "CLASSIFICATION_TYPE": "U", "NORAD_CAT_ID": 33948, "ELEMENT_SET_NO": 999, "REV_AT_EPOCH": 88126, "BSTAR": 0.00013775443, "MEAN_MOTION_DOT": 3.72e-06, "MEAN_MOTION_DDOT": 0}, "tle": {"line1": "1 33948U 93036FD  25353.91743451  .00000372  00000+0  13775-3 0  9997", "line2": "2 33948  74.0359 291.9644 0023043   6.0328 354.1097 14.35637137881267"}}, "geometry": {"type": "Point", "coordinates": [121.5394527641824, -31.647274257493898]}}, {"type": "Feature", "properties": {"norad_id": 33971, "name": "COSMOS 2251 DEB", "group": "cosmos-2251-debris", "lat": 30.193707848379535, "lon": -110.52789242411423, "alt_km": 749.2636874349437, "timestamp": "2025-12-20T05:41:50.424468+00:00", "meta": {"OBJECT_NAME": "COSMOS 2251 DEB", "OBJECT_ID": "1993-036FE", "EPOCH": "2025-12-19T22:56:42.866016", "MEAN_MOTION": 14.39737047, "ECCENTRICITY": 0.00188287, "INCLINATION": 74.0244, "RA_OF_ASC_NODE": 240.3966, "ARG_OF_PERICENTER": 339.6083, "MEAN_ANOMALY": 34.2584, "EPHEMERIS_TYPE": 0, "CLASSIFICATION_TYPE": "U", "NORAD_CAT_ID": 33971, "ELEMENT_SET_NO": 999, "REV_AT_EPOCH": 88243, "BSTAR": 0.00018970431, "MEAN_MOTION_DOT": 5.69e-06, "MEAN_MOTION_DDOT": 0}, "tle": {"line1": "1 33971U 93036FE  25353.95605169  .00000569  00000+0  18970-3 0  9990", "line2": "2 33971  74.0244 240.3966 0018828 339.6083  34.2584 14.39737047882431"}}, "geometry": {"type": "Point", "coordinates": [-110.52789242411423, 30.193707848379535]}}, {"type": "Feature", "properties": {"norad_id": 33972, "name": "COSMOS 2251 DEB", "group": "cosmos-2251-debris", "lat": -51.335061167470485, "lon": 17.880371841578096, "alt_km": 804.7302376880243, "timestamp": "2025-12-20T05:41:50.424479+00:00", "meta": {"OBJECT_NAME": "COSMOS 2251 DEB", "OBJECT_ID": "1993-036FF", "EPOCH": "2025-12-18T23:12:46.905120", "MEAN_MOTION": 14.36266996, "ECCENTRICITY": 0.01235996, "INCLINATION": 73.9933, "RA_OF_ASC_NODE": 179.1952, "ARG_OF_PERICENTER": 345.5656, "MEAN_ANOMALY": 165.109, "EPHEMERIS_TYPE": 0, "CLASSIFICATION_TYPE": "U", "NORAD_CAT_ID": 33972, "ELEMENT_SET_NO": 999, "REV_AT_EPOCH": 87163, "BSTAR": 0.00091407124, "MEAN_MOTION_DOT": 2.886e-05, "MEAN_MOTION_DDOT": 0}, "tle": {"line1": "1 33972U 93036FF  25352.96720955  .00002886  00000+0  91407-3 0  9992", "line2": "2 33972  73.9933 179.1952 0123599 345.5656 165.1090 14.36266996871636"}}, "geometry": {"type": "Point", "coordinates": [17.880371841578096, -51.335061167470485]}}, {"type": "Feature", "properties": {"norad_id": 33973, "name": "COSMOS 2251 DEB", "group": "cosmos-2251-debris", "lat": -49.848489801871914, "lon": -71.23218021633615, "alt_km": 718.9959466525715, "timestamp": "2025-12-20T05:41:50.424490+00:00", "meta": {"OBJECT_NAME": "COSMOS 2251 DEB", "OBJECT_ID": "1993-036FG", "EPOCH": "2025-12-18T14:56:57.974208", "MEAN_MOTION": 14.4539705, "ECCENTRICITY": 0.00473892, "INCLINATION": 74.0087, "RA_OF_ASC_NODE": 91.9086, "ARG_OF_PERICENTER": 269.2619, "MEAN_ANOMALY": 206.1103, "EPHEMERIS_TYPE": 0, "CLASSIFICATION_TYPE": "U", "NORAD_CAT_ID": 33973, "ELEMENT_SET_NO": 999, "REV_AT_EPOCH": 88685, "BSTAR": 0.00011417305, "MEAN_MOTION_DOT": 3.79e-06, "MEAN_MOTION_DDOT": 0}, "tle": {"line1": "1 33973U 93036FG  25352.62289322  .00000379  00000+0  11417-3 0  9992", "line2": "2 33973  74.0087  91.9086 0047389 269.2619 206.1103 14.45397050886858"}}, "geometry": {"type": "Point", "coordinates": [-71.23218021633615, -49.848489801871914]}}, {"type": "Feature", "properties": {"norad_id": 33975, "name": "COSMOS 2251 DEB", "group": "cosmos-2251-debris", "lat": 41.52379962143273, "lon": 86.18896698798319, "alt_km": 1017.8198159454014, "timestamp": "2025-12-20T05:41:50.424500+00:00", "meta": {"OBJECT_NAME": "COSMOS 2251 DEB", "OBJECT_ID": "1993-036FJ", "EPOCH": "2025-12-19T05:28:53.307264", "MEAN_MOTION": 14.00537307, "ECCENTRICITY": 0.0191115, "INCLINATION": 73.8018, "RA_OF_ASC_NODE": 73.0471, "ARG_OF_PERICENTER": 204.9448, "MEAN_ANOMALY": 154.2359, "EPHEMERIS_TYPE": 0, "CLASSIFICATION_TYPE": "U", "NORAD_CAT_ID": 33975, "ELEMENT_SET_NO": 999, "REV_AT_EPOCH": 85920, "BSTAR": 0.000393, "MEAN_MOTION_DOT": 6.58e-06, "MEAN_MOTION_DDOT": 0}, "tle": {"line1": "1 33975U 93036FJ  25353.22839476  .00000658  00000+0  39300-3 0  9993", "line2": "2 33975  73.8018  73.0471 0191115 204.9448 154.2359 14.00537307859200"}}, "geometry": {"type": "Point", "coordinates": [86.18896698798319, 41.52379962143273]}}]}